{
  "type": "FeatureCollection",
  "features": [
    {
      "type": "Feature",
      "properties": {
        "norad_id": 52912,
        "name": "GAOFEN-12 03",
        "group": "resource",
        "lat": 53.321807727195726,
        "lon": -125.11362934485861,
        "alt_km": 624.1566855702076,
        "timestamp": "2025-12-24T11:32:59.661763+00:00",
        "meta_object_name": "GAOFEN-12 03",
        "meta_object_id": "2022-069A",
        "meta_epoch": "2025-12-24T04:48:52.221888",
        "meta_mean_motion": 14.79637652,
        "meta_eccentricity": 0.0001881,
        "meta_inclination": 97.848,
        "meta_ra_of_asc_node": 245.2847,
        "meta_arg_of_pericenter": 49.7028,
        "meta_mean_anomaly": 310.4348,
        "meta_ephemeris_type": 0,
        "meta_classification_type": "U",
        "meta_norad_cat_id": 52912,
        "meta_element_set_no": 999,
        "meta_rev_at_epoch": 18873,
        "meta_bstar": 0.00025816,
        "meta_mean_motion_dot": 1.885e-05,
        "meta_mean_motion_ddot": 0,
        "tle_line1": "1 52912U 22069A   25358.20060442  .00001885  00000+0  25816-3 0  9995",
        "tle_line2": "2 52912  97.8480 245.2847 0001881  49.7028 310.4348 14.79637652188737"
      },
      "geometry": {
        "type": "Point",
        "coordinates": [
          -125.11362934485861,
          53.321807727195726
        ]
      }
    },
    {
      "type": "Feature",
      "properties": {
        "norad_id": 54754,
        "name": "SWOT",
        "group": "resource",
        "lat": -73.60979998759323,
        "lon": -137.21601593421013,
        "alt_km": 900.6284747360005,
        "timestamp": "2025-12-24T11:32:59.661773+00:00",
        "meta_object_name": "SWOT",
        "meta_object_id": "2022-173A",
        "meta_epoch": "2025-12-24T03:21:11.085696",
        "meta_mean_motion": 14.00168514,
        "meta_eccentricity": 3.96e-05,
        "meta_inclination": 77.6109,
        "meta_ra_of_asc_node": 271.6015,
        "meta_arg_of_pericenter": 82.8142,
        "meta_mean_anomaly": 277.3055,
        "meta_ephemeris_type": 0,
        "meta_classification_type": "U",
        "meta_norad_cat_id": 54754,
        "meta_element_set_no": 999,
        "meta_rev_at_epoch": 15465,
        "meta_bstar": 5.7679e-05,
        "meta_mean_motion_dot": 8.3e-07,
        "meta_mean_motion_ddot": 0,
        "tle_line1": "1 54754U 22173A   25358.13971164  .00000083  00000+0  57679-4 0  9993",
        "tle_line2": "2 54754  77.6109 271.6015 0000396  82.8142 277.3055 14.00168514154652"
      },
      "geometry": {
        "type": "Point",
        "coordinates": [
          -137.21601593421013,
          -73.60979998759323
        ]
      }
    },
    {
      "type": "Feature",
      "properties": {
        "norad_id": 57654,
        "name": "GAOFEN-12 04",
        "group": "resource",
        "lat": -47.239176641933234,
        "lon": 85.41045499189255,
        "alt_km": 637.7236749546064,
        "timestamp": "2025-12-24T11:32:59.661783+00:00",
        "meta_object_name": "GAOFEN-12 04",
        "meta_object_id": "2023-123A",
        "meta_epoch": "2025-12-24T04:01:55.974144",
        "meta_mean_motion": 14.79731577,
        "meta_eccentricity": 0.0001206,
        "meta_inclination": 97.9128,
        "meta_ra_of_asc_node": 273.7522,
        "meta_arg_of_pericenter": 79.0173,
        "meta_mean_anomaly": 281.1174,
        "meta_ephemeris_type": 0,
        "meta_classification_type": "U",
        "meta_norad_cat_id": 57654,
        "meta_element_set_no": 999,
        "meta_rev_at_epoch": 12674,
        "meta_bstar": 0.00018524,
        "meta_mean_motion_dot": 1.341e-05,
        "meta_mean_motion_ddot": 0,
        "tle_line1": "1 57654U 23123A   25358.16800896  .00001341  00000+0  18524-3 0  9990",
        "tle_line2": "2 57654  97.9128 273.7522 0001206  79.0173 281.1174 14.79731577126744"
      },
      "geometry": {
        "type": "Point",
        "coordinates": [
          85.41045499189255,
          -47.239176641933234
        ]
      }
    },
    {
      "type": "Feature",
      "properties": {
        "norad_id": 59065,
        "name": "PARS 1",
        "group": "resource",
        "lat": -25.104412316145357,
        "lon": -26.812264241545698,
        "alt_km": 444.3540901237211,
        "timestamp": "2025-12-24T11:32:59.661793+00:00",
        "meta_object_name": "PARS 1",
        "meta_object_id": "2024-039Q",
        "meta_epoch": "2025-12-24T03:52:06.180960",
        "meta_mean_motion": 15.41226375,
        "meta_eccentricity": 0.0011682,
        "meta_inclination": 97.4653,
        "meta_ra_of_asc_node": 329.3383,
        "meta_arg_of_pericenter": 37.3402,
        "meta_mean_anomaly": 322.8654,
        "meta_ephemeris_type": 0,
        "meta_classification_type": "U",
        "meta_norad_cat_id": 59065,
        "meta_element_set_no": 999,
        "meta_rev_at_epoch": 10164,
        "meta_bstar": 0.00030555,
        "meta_mean_motion_dot": 0.00012641,
        "meta_mean_motion_ddot": 0,
        "tle_line1": "1 59065U 24039Q   25358.16118265  .00012641  00000+0  30555-3 0  9990",
        "tle_line2": "2 59065  97.4653 329.3383 0011682  37.3402 322.8654 15.41226375101647"
      },
      "geometry": {
        "type": "Point",
        "coordinates": [
          -26.812264241545698,
          -25.104412316145357
        ]
      }
    },
    {
      "type": "Feature",
      "properties": {
        "norad_id": 59371,
        "name": "RESURS-P 4",
        "group": "resource",
        "lat": 79.13452663660132,
        "lon": 166.1654180490401,
        "alt_km": 461.4339486382687,
        "timestamp": "2025-12-24T11:32:59.661804+00:00",
        "meta_object_name": "RESURS-P 4",
        "meta_object_id": "2024-061A",
        "meta_epoch": "2025-12-24T04:51:13.746816",
        "meta_mean_motion": 15.32185933,
        "meta_eccentricity": 8.23e-05,
        "meta_inclination": 97.2565,
        "meta_ra_of_asc_node": 304.2984,
        "meta_arg_of_pericenter": 75.4994,
        "meta_mean_anomaly": 284.6339,
        "meta_ephemeris_type": 0,
        "meta_classification_type": "U",
        "meta_norad_cat_id": 59371,
        "meta_element_set_no": 999,
        "meta_rev_at_epoch": 9696,
        "meta_bstar": 0.00015084,
        "meta_mean_motion_dot": 4.611e-05,
        "meta_mean_motion_ddot": 0,
        "tle_line1": "1 59371U 24061A   25358.20224244  .00004611  00000+0  15084-3 0  9993",
        "tle_line2": "2 59371  97.2565 304.2984 0000823  75.4994 284.6339 15.32185933 96967"
      },
      "geometry": {
        "type": "Point",
        "coordinates": [
          166.1654180490401,
          79.13452663660132
        ]
      }
    },
    {
      "type": "Feature",
      "properties": {
        "norad_id": 59625,
        "name": "LEGION 1",
        "group": "resource",
        "lat": 24.839402282311546,
        "lon": 69.5138555079961,
        "alt_km": 516.8546342355194,
        "timestamp": "2025-12-24T11:32:59.661815+00:00",
        "meta_object_name": "LEGION 1",
        "meta_object_id": "2024-081A",
        "meta_epoch": "2025-12-24T03:31:19.779744",
        "meta_mean_motion": 15.16588049,
        "meta_eccentricity": 0.0003605,
        "meta_inclination": 97.5198,
        "meta_ra_of_asc_node": 72.6879,
        "meta_arg_of_pericenter": 264.0593,
        "meta_mean_anomaly": 96.0229,
        "meta_ephemeris_type": 0,
        "meta_classification_type": "U",
        "meta_norad_cat_id": 59625,
        "meta_element_set_no": 999,
        "meta_rev_at_epoch": 9100,
        "meta_bstar": 0.00028358,
        "meta_mean_motion_dot": 5.472e-05,
        "meta_mean_motion_ddot": 0,
        "tle_line1": "1 59625U 24081A   25358.14675671  .00005472  00000+0  28358-3 0  9998",
        "tle_line2": "2 59625  97.5198  72.6879 0003605 264.0593  96.0229 15.16588049 91005"
      },
      "geometry": {
        "type": "Point",
        "coordinates": [
          69.5138555079961,
          24.839402282311546
        ]
      }
    },
    {
      "type": "Feature",
      "properties": {
        "norad_id": 59626,
        "name": "LEGION 2",
        "group": "resource",
        "lat": -25.290285200130832,
        "lon": -110.47098883636185,
        "alt_km": 518.6783438158627,
        "timestamp": "2025-12-24T11:32:59.661825+00:00",
        "meta_object_name": "LEGION 2",
        "meta_object_id": "2024-081B",
        "meta_epoch": "2025-12-24T02:43:44.561280",
        "meta_mean_motion": 15.16599796,
        "meta_eccentricity": 0.0005737,
        "meta_inclination": 97.52,
        "meta_ra_of_asc_node": 72.7431,
        "meta_arg_of_pericenter": 244.3388,
        "meta_mean_anomaly": 115.7253,
        "meta_ephemeris_type": 0,
        "meta_classification_type": "U",
        "meta_norad_cat_id": 59626,
        "meta_element_set_no": 999,
        "meta_rev_at_epoch": 9100,
        "meta_bstar": 0.00027216,
        "meta_mean_motion_dot": 5.251e-05,
        "meta_mean_motion_ddot": 0,
        "tle_line1": "1 59626U 24081B   25358.11371020  .00005251  00000+0  27216-3 0  9994",
        "tle_line2": "2 59626  97.5200  72.7431 0005737 244.3388 115.7253 15.16599796 91003"
      },
      "geometry": {
        "type": "Point",
        "coordinates": [
          -110.47098883636185,
          -25.290285200130832
        ]
      }
    }
  ]
}